{"type": "FeatureCollection", "features": [ {"type": "Feature", "properties": {"norad_id": 59600, "name": "GSAT0227 (GALILEO 30)", "group": "gnss", "lat": -52.268521700200225, "lon": 41.608387337074525, "alt_km": 23237.593997764456, "timestamp": "2025-12-08T05:48:09.279310+00:00", "meta": {"OBJECT_NAME": "GSAT0227 (GALILEO 30)", "OBJECT_ID": "2024-079C", "EPOCH": "2025-12-06T14:29:58.537536", "MEAN_MOTION": 1.70474646, "ECCENTRICITY": 0.00033412, "INCLINATION": 54.9931, "RA_OF_ASC_NODE": 106.4659, "ARG_OF_PERICENTER": 113.7646, "MEAN_ANOMALY": 246.2238, "EPHEMERIS_TYPE": 0, "CLASSIFICATION_TYPE": "U", "NORAD_CAT_ID": 59600, "ELEMENT_SET_NO": 999, "REV_AT_EPOCH": 1008, "BSTAR": 0, "MEAN_MOTION_DOT": 6e-08, "MEAN_MOTION_DDOT": 0}, "tle": {"line1": "1 59600U 24079C   25340.60414974  .00000006  00000+0  00000+0 0  9995", "line2": "2 59600  54.9931 106.4659 0003341 113.7646 246.2238  1.70474646 10088"}}, "geometry": {"type": "Point", "coordinates": [41.608387337074525, -52.268521700200225]}}, {"type": "Feature", "properties": {"norad_id": 61182, "name": "GSAT0232 (GALILEO 32)", "group": "gnss", "lat": 45.64500021196093, "lon": 1.3687140792711945, "alt_km": 23217.313291138766, "timestamp": "2025-12-08T05:48:09.279323+00:00", "meta": {"OBJECT_NAME": "GSAT0232 (GALILEO 32)", "OBJECT_ID": "2024-167A", "EPOCH": "2025-12-04T05:35:38.594112", "MEAN_MOTION": 1.70473104, "ECCENTRICITY": 0.00021975, "INCLINATION": 55.2442, "RA_OF_ASC_NODE": 226.6647, "ARG_OF_PERICENTER": 213.7297, "MEAN_ANOMALY": 325.6534, "EPHEMERIS_TYPE": 0, "CLASSIFICATION_TYPE": "U", "NORAD_CAT_ID": 61182, "ELEMENT_SET_NO": 999, "REV_AT_EPOCH": 755, "BSTAR": 0, "MEAN_MOTION_DOT": 4.1e-07, "MEAN_MOTION_DDOT": 0}, "tle": {"line1": "1 61182U 24167A   25338.23308558  .00000041  00000+0  00000+0 0  9996", "line2": "2 61182  55.2442 226.6647 0002197 213.7297 325.6534  1.70473104  7557"}}, "geometry": {"type": "Point", "coordinates": [1.3687140792711945, 45.64500021196093]}}, {"type": "Feature", "properties": {"norad_id": 61183, "name": "GSAT0226 (GALILEO 31)", "group": "gnss", "lat": -40.48897323536954, "lon": 82.88983009127652, "alt_km": 23227.712287143986, "timestamp": "2025-12-08T05:48:09.279334+00:00", "meta": {"OBJECT_NAME": "GSAT0226 (GALILEO 31)", "OBJECT_ID": "2024-167B", "EPOCH": "2025-12-06T09:26:36.340224", "MEAN_MOTION": 1.70473292, "ECCENTRICITY": 7.913e-05, "INCLINATION": 55.2417, "RA_OF_ASC_NODE": 226.6105, "ARG_OF_PERICENTER": 126.2936, "MEAN_ANOMALY": 51.6212, "EPHEMERIS_TYPE": 0, "CLASSIFICATION_TYPE": "U", "NORAD_CAT_ID": 61183, "ELEMENT_SET_NO": 999, "REV_AT_EPOCH": 756, "BSTAR": 0, "MEAN_MOTION_DOT": 3.3e-07, "MEAN_MOTION_DDOT": 0}, "tle": {"line1": "1 61183U 24167B   25340.39347616  .00000033  00000+0  00000+0 0  9996", "line2": "2 61183  55.2417 226.6105 0000791 126.2936  51.6212  1.70473292  7563"}}, "geometry": {"type": "Point", "coordinates": [82.88983009127652, -40.48897323536954]}}, {"type": "Feature", "properties": {"norad_id": 61186, "name": "BEIDOU-3 M25 (C47)", "group": "gnss", "lat": -32.18863230687575, "lon": -77.66862363916826, "alt_km": 21518.25360215427, "timestamp": "2025-12-08T05:48:09.279345+00:00", "meta": {"OBJECT_NAME": "BEIDOU-3 M25 (C47)", "OBJECT_ID": "2024-168B", "EPOCH": "2025-12-07T11:49:46.567776", "MEAN_MOTION": 1.86229795, "ECCENTRICITY": 0.000545, "INCLINATION": 54.6466, "RA_OF_ASC_NODE": 308.9013, "ARG_OF_PERICENTER": 295.4181, "MEAN_ANOMALY": 241.6791, "EPHEMERIS_TYPE": 0, "CLASSIFICATION_TYPE": "U", "NORAD_CAT_ID": 61186, "ELEMENT_SET_NO": 999, "REV_AT_EPOCH": 821, "BSTAR": 0, "MEAN_MOTION_DOT": -7.2e-07, "MEAN_MOTION_DDOT": 0}, "tle": {"line1": "1 61186U 24168B   25341.49290009 -.00000072  00000+0  00000+0 0  9999", "line2": "2 61186  54.6466 308.9013 0005450 295.4181 241.6791  1.86229795  8213"}}, "geometry": {"type": "Point", "coordinates": [-77.66862363916826, -32.18863230687575]}}, {"type": "Feature", "properties": {"norad_id": 61187, "name": "BEIDOU-3 M27 (C49)", "group": "gnss", "lat": 54.428006291946694, "lon": 46.03345468630968, "alt_km": 21525.206118273658, "timestamp": "2025-12-08T05:48:09.279356+00:00", "meta": {"OBJECT_NAME": "BEIDOU-3 M27 (C49)", "OBJECT_ID": "2024-168C", "EPOCH": "2025-12-07T02:45:45.916992", "MEAN_MOTION": 1.86229917, "ECCENTRICITY": 0.00022869, "INCLINATION": 54.6424, "RA_OF_ASC_NODE": 308.8981, "ARG_OF_PERICENTER": 332.2687, "MEAN_ANOMALY": 86.4832, "EPHEMERIS_TYPE": 0, "CLASSIFICATION_TYPE": "U", "NORAD_CAT_ID": 61187, "ELEMENT_SET_NO": 999, "REV_AT_EPOCH": 568, "BSTAR": 0, "MEAN_MOTION_DOT": -7.1e-07, "MEAN_MOTION_DDOT": 0}, "tle": {"line1": "1 61187U 24168C   25341.11511478 -.00000071  00000+0  00000+0 0  9994", "line2": "2 61187  54.6424 308.8981 0002286 332.2687  86.4832  1.86229917  5681"}}, "geometry": {"type": "Point", "coordinates": [46.03345468630968, 54.428006291946694]}}, {"type": "Feature", "properties": {"norad_id": 62339, "name": "GPS BIII-7  (PRN 01)", "group": "gnss", "lat": -51.35864240918072, "lon": -136.58208229079239, "alt_km": 20187.995863319826, "timestamp": "2025-12-08T05:48:09.279371+00:00", "meta": {"OBJECT_NAME": "GPS BIII-7  (PRN 01)", "OBJECT_ID": "2024-242A", "EPOCH": "2025-12-07T03:32:57.244128", "MEAN_MOTION": 2.00567416, "ECCENTRICITY": 0.00118981, "INCLINATION": 54.925, "RA_OF_ASC_NODE": 341.9665, "ARG_OF_PERICENTER": 343.6843, "MEAN_ANOMALY": 199.2403, "EPHEMERIS_TYPE": 0, "CLASSIFICATION_TYPE": "U", "NORAD_CAT_ID": 62339, "ELEMENT_SET_NO": 999, "REV_AT_EPOCH": 740, "BSTAR": 0, "MEAN_MOTION_DOT": -8.5e-07, "MEAN_MOTION_DDOT": 0}, "tle": {"line1": "1 62339U 24242A   25341.14788477 -.00000085  00000+0  00000+0 0  9990", "line2": "2 62339  54.9250 341.9665 0011898 343.6843 199.2403  2.00567416  7402"}}, "geometry": {"type": "Point", "coordinates": [-136.58208229079239, -51.35864240918072]}}, {"type": "Feature", "properties": {"norad_id": 62850, "name": "NVS-02 (IRNSS-1K)", "group": "gnss", "lat": -11.428052179499081, "lon": -178.9336748516956, "alt_km": 35406.431016055576, "timestamp": "2025-12-08T05:48:09.279383+00:00", "meta": {"OBJECT_NAME": "NVS-02 (IRNSS-1K)", "OBJECT_ID": "2025-020A", "EPOCH": "2025-12-07T11:50:13.949664", "MEAN_MOTION": 2.17588946, "ECCENTRICITY": 0.7347726, "INCLINATION": 20.9974, "RA_OF_ASC_NODE": 329.5588, "ARG_OF_PERICENTER": 22.8281, "MEAN_ANOMALY": 357.6119, "EPHEMERIS_TYPE": 0, "CLASSIFICATION_TYPE": "U", "NORAD_CAT_ID": 62850, "ELEMENT_SET_NO": 999, "REV_AT_EPOCH": 680, "BSTAR": 0.00028102622, "MEAN_MOTION_DOT": 1.95e-06, "MEAN_MOTION_DDOT": 0}, "tle": {"line1": "1 62850U 25020A   25341.49321701  .00000195  00000+0  28103-3 0  9993", "line2": "2 62850  20.9974 329.5588 7347726  22.8281 357.6119  2.17588946  6809"}}, "geometry": {"type": "Point", "coordinates": [-178.9336748516956, -11.428052179499081]}}, {"type": "Feature", "properties": {"norad_id": 63130, "name": "COSMOS 2584 (704K)", "group": "gnss", "lat": 57.462020456173825, "lon": 126.28015239783535, "alt_km": 19139.72600990987, "timestamp": "2025-12-08T05:48:09.279398+00:00", "meta": {"OBJECT_NAME": "COSMOS 2584 (704K)", "OBJECT_ID": "2025-042A", "EPOCH": "2025-12-06T17:52:16.826016", "MEAN_MOTION": 2.13102912, "ECCENTRICITY": 0.00075908, "INCLINATION": 64.9729, "RA_OF_ASC_NODE": 79.3502, "ARG_OF_PERICENTER": 215.663, "MEAN_ANOMALY": 144.2957, "EPHEMERIS_TYPE": 0, "CLASSIFICATION_TYPE": "U", "NORAD_CAT_ID": 63130, "ELEMENT_SET_NO": 999, "REV_AT_EPOCH": 594, "BSTAR": 0, "MEAN_MOTION_DOT": -1.5e-07, "MEAN_MOTION_DDOT": 0}, "tle": {"line1": "1 63130U 25042A   25340.74463919 -.00000015  00000+0  00000+0 0  9998", "line2": "2 63130  64.9729  79.3502 0007590 215.6630 144.2957  2.13102912  5943"}}, "geometry": {"type": "Point", "coordinates": [126.28015239783535, 57.462020456173825]}}, {"type": "Feature", "properties": {"norad_id": 64202, "name": "GPS BIII-8  (PRN 21)", "group": "gnss", "lat": 54.39930913978652, "lon": 115.76355796539768, "alt_km": 20185.974853794378, "timestamp": "2025-12-08T05:48:09.279409+00:00", "meta": {"OBJECT_NAME": "GPS BIII-8  (PRN 21)", "OBJECT_ID": "2025-116A", "EPOCH": "2025-12-07T02:40:40.917216", "MEAN_MOTION": 2.00558359, "ECCENTRICITY": 0.00051354, "INCLINATION": 55.1017, "RA_OF_ASC_NODE": 38.8682, "ARG_OF_PERICENTER": 307.3727, "MEAN_ANOMALY": 39.0167, "EPHEMERIS_TYPE": 0, "CLASSIFICATION_TYPE": "U", "NORAD_CAT_ID": 64202, "ELEMENT_SET_NO": 999, "REV_AT_EPOCH": 401, "BSTAR": 0, "MEAN_MOTION_DOT": -7.4e-07, "MEAN_MOTION_DDOT": 0}, "tle": {"line1": "1 64202U 25116A   25341.11158469 -.00000074  00000+0  00000+0 0  9999", "line2": "2 64202  55.1017  38.8682 0005135 307.3727  39.0167  2.00558359  4011"}}, "geometry": {"type": "Point", "coordinates": [115.76355796539768, 54.39930913978652]}}, {"type": "Feature", "properties": {"norad_id": 65590, "name": "COSMOS 2596 (708K)", "group": "gnss", "lat": -6.30260973797685, "lon": 144.6057445458142, "alt_km": 19148.226620697358, "timestamp": "2025-12-08T05:48:09.279420+00:00", "meta": {"OBJECT_NAME": "COSMOS 2596 (708K)", "OBJECT_ID": "2025-206B", "EPOCH": "2025-12-07T02:40:02.915904", "MEAN_MOTION": 2.13100202, "ECCENTRICITY": 0.00140103, "INCLINATION": 64.7475, "RA_OF_ASC_NODE": 321.6695, "ARG_OF_PERICENTER": 305.1353, "MEAN_ANOMALY": 94.5445, "EPHEMERIS_TYPE": 0, "CLASSIFICATION_TYPE": "U", "NORAD_CAT_ID": 65590, "ELEMENT_SET_NO": 999, "REV_AT_EPOCH": 182, "BSTAR": 0, "MEAN_MOTION_DOT": -5.1e-07, "MEAN_MOTION_DDOT": 0}, "tle": {"line1": "1 65590U 25206B   25341.11114486 -.00000051  00000+0  00000+0 0  9996", "line2": "2 65590  64.7475 321.6695 0014010 305.1353  94.5445  2.13100202  1821"}}, "geometry": {"type": "Point", "coordinates": [144.6057445458142, -6.30260973797685]}}]}